     3.02           N: GNSS NAV DATA    R: GLONASS          RINEX VERSION / TYPE
NetR9 5.01          Receiver Operator   20250313 085054 UTC PGM / RUN BY / DATE
    18    18  2441     7                                    LEAP SECONDS
                                                            END OF HEADER
R23 2025 03 13 08 45 00 -.149344094098D-03 -.909494701773D-12  .318000000000D+05
      .207873994141D+05 -.574985504150D+00  .279396772385D-08  .000000000000D+00
      .136794433594D+05 -.553503990173D+00  .372529029846D-08  .300000000000D+01
      .557350683594D+04  .349811649323D+01 -.931322574615D-09  .000000000000D+00
R22 2025 03 13 08 45 00 -.643376260996D-04 -.181898940355D-11  .318000000000D+05
      .925726660156D+04 -.218210697174D+01  .186264514923D-08  .000000000000D+00
      .149459165039D+05 -.128005504608D+01  .186264514923D-08 -.300000000000D+01
      .185002119141D+05  .213018798828D+01 -.186264514923D-08  .000000000000D+00
R21 2025 03 13 08 45 00 -.184260308743D-03 -.363797880709D-11  .318000000000D+05
     -.933050292969D+04 -.279870700836D+01  .000000000000D+00  .000000000000D+00
      .687842724609D+04 -.136767768860D+01 -.186264514923D-08  .400000000000D+01
      .227171791992D+05 -.737179756165D+00 -.186264514923D-08  .000000000000D+00
R12 2025 03 13 08 45 00  .518038868904D-04  .909494701773D-12  .318000000000D+05
      .957469824219D+04  .280097961426D+00  .279396772385D-08  .000000000000D+00
      .160788081055D+05  .235727500916D+01  .186264514923D-08 -.100000000000D+01
      .173592832031D+05 -.233933639526D+01 -.186264514923D-08  .000000000000D+00
R11 2025 03 13 08 45 00 -.190408900380D-04 -.454747350886D-11  .318000000000D+05
      .176636865234D+04  .156116485596D+00  .372529029846D-08  .000000000000D+00
      .254294580078D+05 -.987806320190D-01  .186264514923D-08  .000000000000D+00
     -.619246582031D+03 -.357136154175D+01  .000000000000D+00  .000000000000D+00
R10 2025 03 13 08 45 00 -.297071412206D-03 -.454747350886D-11  .318000000000D+05
     -.634916845703D+04 -.867280960083D-01  .279396772385D-08  .000000000000D+00
      .184539746094D+05 -.225167560577D+01  .000000000000D+00 -.700000000000D+01
     -.164858208008D+05 -.248143386841D+01  .931322574615D-09  .000000000000D+00
R07 2025 03 13 08 45 00  .102412886918D-03  .000000000000D+00  .318000000000D+05
     -.171545327148D+05 -.928280830383D+00  .186264514923D-08  .000000000000D+00
      .166095507812D+05  .838094711304D+00 -.931322574615D-09  .500000000000D+01
     -.899141162109D+04  .329713821411D+01  .931322574615D-09  .000000000000D+00
R06 2025 03 13 08 45 00 -.205425545573D-03 -.909494701773D-12  .318000000000D+05
     -.216241323242D+05  .903803825378D+00  .000000000000D+00  .000000000000D+00
      .114145078125D+05 -.453059196472D+00 -.279396772385D-08 -.400000000000D+01
      .728186279297D+04  .339048862457D+01  .000000000000D+00  .000000000000D+00
R08 2025 03 13 08 45 00 -.580772757530D-05  .000000000000D+00  .318000000000D+05
     -.319530224609D+04 -.236120891571D+01  .279396772385D-08  .000000000000D+00
      .139750112305D+05  .168289470673D+01  .000000000000D+00  .600000000000D+01
     -.210395659180D+05  .146858215332D+01  .186264514923D-08  .000000000000D+00
R13 2025 03 13 08 45 00 -.572018325329D-04  .000000000000D+00  .323400000000D+05
      .110593129883D+05  .280262947083D+00  .000000000000D+00  .000000000000D+00
     -.265544433594D+03  .313624572754D+01  .931322574615D-09 -.200000000000D+01
      .229668085937D+05 -.981559753418D-01 -.279396772385D-08  .000000000000D+00
R22 2025 03 13 09 15 00 -.643366947770D-04 -.909494701773D-12  .324000000000D+05
      .479992285156D+04 -.273731899261D+01  .186264514923D-08  .000000000000D+00
      .127760180664D+05 -.109434127808D+01  .000000000000D+00 -.300000000000D+01
      .215712290039D+05  .126003646851D+01 -.279396772385D-08  .000000000000D+00
R12 2025 03 13 09 15 00  .518057495356D-04  .909494701773D-12  .324000000000D+05
      .102880053711D+05  .477346420288D+00  .372529029846D-08  .000000000000D+00
      .197105400391D+05  .164890956879D+01  .186264514923D-08 -.100000000000D+01
      .125329916992D+05 -.298849773407D+01 -.186264514923D-08  .000000000000D+00
R11 2025 03 13 09 15 00 -.190492719412D-04 -.454747350886D-11  .324000000000D+05
      .189849316406D+04 -.480098724365D-01  .372529029846D-08  .000000000000D+00
      .244604921875D+05 -.963455200195D+00  .931322574615D-09  .000000000000D+00
     -.694055224609D+04 -.340663528442D+01  .000000000000D+00  .000000000000D+00
R07 2025 03 13 09 15 00  .102414749563D-03  .909494701773D-12  .324000000000D+05
     -.181251040039D+05 -.164104461670D+00  .931322574615D-09  .000000000000D+00
      .177598076172D+05  .400163650513D+00 -.279396772385D-08  .500000000000D+01
     -.278593457031D+04  .355306243896D+01  .000000000000D+00  .000000000000D+00
R06 2025 03 13 09 15 00 -.205428339541D-03 -.909494701773D-12  .324000000000D+05
     -.195198071289D+05  .139310073853D+01  .000000000000D+00  .000000000000D+00
      .100076889648D+05 -.112365627289D+01 -.279396772385D-08 -.400000000000D+01
      .130245205078D+05  .294881343842D+01 -.931322574615D-09  .000000000000D+00
R21 2025 03 13 09 15 00 -.184265896678D-03 -.363797880709D-11  .324000000000D+05
     -.143166826172D+05 -.269007492065D+01 -.931322574615D-09  .000000000000D+00
      .488941845703D+04 -.835928916931D+00 -.279396772385D-08  .400000000000D+01
      .205288090820D+05 -.167860603333D+01 -.186264514923D-08  .000000000000D+00
R23 2025 03 13 09 15 00 -.149346888065D-03 -.909494701773D-12  .324000000000D+05
      .189862490234D+05 -.142402935028D+01  .279396772385D-08  .000000000000D+00
      .124824130859D+05 -.732537269592D+00  .279396772385D-08  .300000000000D+01
      .115729902344D+05  .312463760376D+01 -.186264514923D-08  .000000000000D+00
R10 2025 03 13 09 15 00 -.297079794109D-03 -.454747350886D-11  .324000000000D+05
     -.688456787109D+04 -.525600433350D+00  .186264514923D-08  .000000000000D+00
      .139412148437D+05 -.271810626984D+01  .000000000000D+00 -.700000000000D+01
     -.202603452148D+05 -.168525314331D+01  .186264514923D-08  .000000000000D+00
R08 2025 03 13 09 15 00 -.580772757530D-05  .000000000000D+00  .324000000000D+05
     -.690346289062D+04 -.173737239838D+01  .279396772385D-08  .000000000000D+00
      .170582968750D+05  .169832229614D+01  .000000000000D+00  .600000000000D+01
     -.176129086914D+05  .231376171112D+01  .931322574615D-09  .000000000000D+00
